H1 CPF 01  gfz 2022 02 03 13  5342 tandemx   
H2 1003001  6202 36605    2022 02 03 12 59 42 2022 02 08 00 00 42   120 1 1  0 0 0
H9
10 0 59614  26622.000000  0   -6261419.576   2070459.039  -2000729.026
10 0 59614  26742.000000  0   -6395675.064   2307239.466  -1120188.534
10 0 59614  26862.000000  0   -6414442.161   2505069.269   -219949.122
10 0 59614  26982.000000  0   -6318053.982   2658449.013    684158.615
10 0 59614  27102.000000  0   -6108966.853   2762685.012   1576219.155
10 0 59614  27222.000000  0   -5791704.199   2814011.252   2440521.310
10 0 59614  27342.000000  0   -5372758.318   2809691.760   3261843.394
10 0 59614  27462.000000  0   -4860453.955   2748101.322   4025728.918
10 0 59614  27582.000000  0   -4264775.193   2628782.035   4718745.605
10 0 59614  27702.000000  0   -3597163.037   2452475.565   5328722.184
10 0 59614  27822.000000  0   -2870288.443   2221130.695   5844960.918
10 0 59614  27942.000000  0   -2097804.176   1937885.726   6258422.165
10 0 59614  28062.000000  0   -1294082.094   1607025.732   6561877.062
10 0 59614  28182.000000  0    -473941.872   1233916.293   6750026.586
10 0 59614  28302.000000  0     347622.359    824915.051   6819587.513
10 0 59614  28422.000000  0    1155715.236    387262.888   6769346.024
10 0 59614  28542.000000  0    1935808.847    -71043.681   6600177.393
10 0 59614  28662.000000  0    2674002.737   -541397.749   6315032.555
10 0 59614  28782.000000  0    3357272.090  -1014742.773   5918890.862
10 0 59614  28902.000000  0    3973700.569  -1481745.577   5418678.610
10 0 59614  29022.000000  0    4512692.272  -1932980.008   4823153.333
10 0 59614  29142.000000  0    4965159.481  -2359116.646   4142756.822
10 0 59614  29262.000000  0    5323684.610  -2751116.060   3389437.219
10 0 59614  29382.000000  0    5582650.342  -3100420.982   2576439.921
10 0 59614  29502.000000  0    5738333.272  -3399142.175   1718073.020
10 0 59614  29622.000000  0    5788961.317  -3640234.887    829452.346
10 0 59614  29742.000000  0    5734731.680  -3817660.262    -73771.991
10 0 59614  29862.000000  0    5577789.309  -3926527.468   -975699.046
10 0 59614  29982.000000  0    5322165.354  -3963212.940  -1860466.916
10 0 59614  30102.000000  0    4973677.567  -3925452.836  -2712539.643
10 0 59614  30222.000000  0    4539795.808  -3812408.329  -3516985.607
10 0 59614  30342.000000  0    4029476.529  -3624701.254  -4259742.014
10 0 59614  30462.000000  0    3452970.913  -3364420.148  -4927859.494
10 0 59614  30582.000000  0    2821612.095  -3035096.362  -5509722.898
10 0 59614  30702.000000  0    2147587.290  -2641652.737  -5995243.826
10 0 59614  30822.000000  0    1443700.829  -2190327.343  -6376025.242
10 0 59614  30942.000000  0     723130.352  -1688571.222  -6645497.612
10 0 59614  31062.000000  0       -818.526  -1144922.684  -6799021.330
10 0 59614  31182.000000  0    -714953.667   -568862.560  -6833957.135
10 0 59614  31302.000000  0   -1406430.835     29348.105  -6749706.002
10 0 59614  31422.000000  0   -2062979.661    638846.551  -6547717.790
10 0 59614  31542.000000  0   -2673116.268   1248360.383  -6231468.585
10 0 59614  31662.000000  0   -3226340.278   1846410.833  -5806407.520
10 0 59614  31782.000000  0   -3713315.031   2421524.561  -5279873.640
10 0 59614  31902.000000  0   -4126028.820   2962451.909  -4660981.017
10 0 59614  32022.000000  0   -4457932.249   3458386.741  -3960470.952
10 0 59614  32142.000000  0   -4704047.930   3899183.544  -3190535.134
10 0 59614  32262.000000  0   -4861052.154   4275568.098  -2364611.148
10 0 59614  32382.000000  0   -4927325.043   4579335.599  -1497151.529
10 0 59614  32502.000000  0   -4902968.139   4803532.387   -603371.297
10 0 59614  32622.000000  0   -4789787.563   4942616.004    301023.252
10 0 59614  32742.000000  0   -4591241.431   4992588.815   1200117.737
10 0 59614  32862.000000  0   -4312354.796   4951100.261   2078079.288
10 0 59614  32982.000000  0   -3959600.710   4817515.526   2919445.169
10 0 59614  33102.000000  0   -3540752.623   4592949.198   3709402.534
10 0 59614  33222.000000  0   -3064712.959   4280263.671   4434054.244
10 0 59614  33342.000000  0   -2541322.038   3884032.623   5080666.492
10 0 59614  33462.000000  0   -1981151.064   3410469.722   5637892.835
10 0 59614  33582.000000  0   -1395284.981   2867325.037   6095970.293
10 0 59614  33702.000000  0    -795100.070   2263751.808   6446884.829
10 0 59614  33822.000000  0    -192042.516   1610147.346   6684503.890
10 0 59614  33942.000000  0     402589.218    917971.502   6804678.445
10 0 59614  34062.000000  0     977855.748    199544.361   6805310.277
10 0 59614  34182.000000  0    1523376.733   -532172.057   6686386.296
10 0 59614  34302.000000  0    2029517.437  -1263807.047   6449979.653
10 0 59614  34422.000000  0    2487558.827  -1981824.585   6100216.135
10 0 59614  34542.000000  0    2889849.562  -2672773.971   5643207.762
10 0 59614  34662.000000  0    3229936.501  -3323543.271   5086951.350
10 0 59614  34782.000000  0    3502671.018  -3921611.161   4441194.696
10 0 59614  34902.000000  0    3704290.558  -4455292.594   3717271.023
10 0 59614  35022.000000  0    3832472.103  -4913973.209   2927902.423
10 0 59614  35142.000000  0    3886356.412  -5288326.661   2086976.431
10 0 59614  35262.000000  0    3866542.540  -5570509.758   1209298.659
10 0 59614  35382.000000  0    3775051.981  -5754329.847    310326.179
10 0 59614  35502.000000  0    3615263.868  -5835380.063   -594111.224
10 0 59614  35622.000000  0    3391822.965  -5811140.943  -1488099.090
10 0 59614  35742.000000  0    3110520.353  -5681042.111  -2355927.248
10 0 59614  35862.000000  0    2778153.250  -5446485.495  -3182372.614
10 0 59614  35982.000000  0    2402365.517  -5110828.125  -3952971.525
10 0 59614  36102.000000  0    1991473.439  -4679325.670  -4654273.678
10 0 59614  36222.000000  0    1554282.474  -4159039.657  -5274072.869
10 0 59614  36342.000000  0    1099900.550  -3558711.732  -5801612.036
10 0 59614  36462.000000  0     637550.282  -2888608.524  -6227760.247
10 0 59614  36582.000000  0     176383.976  -2160340.488  -6545159.684
10 0 59614  36702.000000  0    -274694.112  -1386657.810  -6748341.649
10 0 59614  36822.000000  0    -707195.014   -581227.558  -6833811.288
10 0 59614  36942.000000  0   -1113200.094    241604.571  -6800100.900
10 0 59614  37062.000000  0   -1485502.590   1067063.694  -6647791.374
10 0 59614  37182.000000  0   -1817732.544   1880204.363  -6379503.144
10 0 59614  37302.000000  0   -2104463.555   2666174.306  -5999856.126
10 0 59614  37422.000000  0   -2341301.544   3410481.547  -5515399.737
10 0 59614  37542.000000  0   -2524952.598   4099260.149  -4934510.603
10 0 59614  37662.000000  0   -2653270.013   4719530.947  -4267259.392
10 0 59614  37782.000000  0   -2725278.360   5259451.400  -3525245.365
10 0 59614  37902.000000  0   -2741173.187   5708547.769  -2721402.370
10 0 59614  38022.000000  0   -2702297.323   6057927.674  -1869780.276
10 0 59614  38142.000000  0   -2611093.326   6300466.937   -985300.297
10 0 59614  38262.000000  0   -2471032.433   6430962.077    -83491.470
10 0 59614  38382.000000  0   -2286523.324   6446249.939    819785.616
10 0 59614  38502.000000  0   -2062799.916   6345287.225   1708628.760
10 0 59614  38622.000000  0   -1805790.428   6129182.875   2567384.864
10 0 59614  38742.000000  0   -1521973.501   5801187.326   3380933.313
10 0 59614  38862.000000  0   -1218225.376   5366639.788   4134957.796
10 0 59614  38982.000000  0    -901661.904   4832874.756   4816202.616
10 0 59614  39102.000000  0    -579476.738   4209088.144   5412707.612
10 0 59614  39222.000000  0    -258781.980   3506169.633   5914014.432
10 0 59614  39342.000000  0      53544.239   2736504.433   6311346.525
10 0 59614  39462.000000  0     351001.767   1913747.902   6597756.348
10 0 59614  39582.000000  0     627600.985   1052579.304   6768241.124
10 0 59614  39702.000000  0     877981.303    168437.346   6819824.255
10 0 59614  39822.000000  0    1097513.578   -722755.475   6751603.792
10 0 59614  39942.000000  0    1282385.136  -1604879.017   6564768.405
10 0 59614  40062.000000  0    1429666.178  -2461906.478   6262578.268
10 0 59614  40182.000000  0    1537356.383  -3278196.312   5850312.288
10 0 59614  40302.000000  0    1604410.581  -4038780.246   5335180.552
10 0 59614  40422.000000  0    1630743.721  -4729640.511   4726203.153
10 0 59614  40542.000000  0    1617215.791  -5337973.476   4034059.226
10 0 59614  40662.000000  0    1565596.089  -5852436.886   3270904.370
10 0 59614  40782.000000  0    1478506.603  -6263370.445   2450156.991
10 0 59614  40902.000000  0    1359346.373  -6562985.493   1586261.583
10 0 59614  41022.000000  0    1212198.658  -6745521.676    694431.324
10 0 59614  41142.000000  0    1041722.822  -6807364.454   -209626.423
10 0 59614  41262.000000  0     853032.211  -6747120.587  -1109996.711
10 0 59614  41382.000000  0     651562.425  -6565645.251  -1990847.888
10 0 59614  41502.000000  0     442934.838  -6266023.248  -2836716.988
10 0 59614  41622.000000  0     232818.173  -5853507.849  -3632785.952
10 0 59614  41742.000000  0      26790.970  -5335417.420  -4365143.884
10 0 59614  41862.000000  0    -169791.656  -4720992.010  -5021028.398
10 0 59614  41982.000000  0    -351923.322  -4021216.507  -5589042.000
10 0 59614  42102.000000  0    -515061.146  -3248613.964  -6059341.798
10 0 59614  42222.000000  0    -655227.415  -2417014.056  -6423799.434
10 0 59614  42342.000000  0    -769096.788  -1541301.678  -6676130.119
10 0 59614  42462.000000  0    -854067.569   -637151.121  -6811990.338
10 0 59614  42582.000000  0    -908315.925    279251.113  -6829044.983
10 0 59614  42702.000000  0    -930832.081   1191489.934  -6727001.810
10 0 59614  42822.000000  0    -921438.567   2083208.024  -6507615.809
10 0 59614  42942.000000  0    -880790.198   2938391.693  -6174662.399
10 0 59614  43062.000000  0    -810355.358   3741653.934  -5733880.886
99
